Address,City,ZIP,School District,Doc Number,Type,Lat,Long
8002 CHESTNUT CAPE DR,CONVERSE,78109,Judson ISD,20260100016,MORTGAGE,29.48753700030975,-98.32744350013914
9451 COPPER MIST,CONVERSE,78109,Judson ISD,20260100033,MORTGAGE,29.50262100039794,-98.29672649979146
4314 GAMBELS QUAIL,CONVERSE,78109,Judson ISD,20260100050,MORTGAGE,29.468510999910844,-98.31737250005489
9310 ESPADRILLE RUN,CONVERSE,78109,Judson ISD,20260100070,MORTGAGE,29.4904529997985,-98.30435399973757
5495 RUE GIRARD,CONVERSE,78109,Judson ISD,20260100071,MORTGAGE,29.481507000254588,-98.315082000167
9822 AUTUMN DAWN,CONVERSE,78109,Judson ISD,20260100085,MORTGAGE,29.49791399957846,-98.29249200013267
2730 POINT SUR,CONVERSE,78109,Judson ISD,20260100107,MORTGAGE,29.454507000140957,-98.35255350040592
10418 SHALLOW CROSSING,CONVERSE,78109,Judson ISD,20260100109,MORTGAGE,29.53291499973709,-98.3290635000979
4644 VIA SONOMA TRL,CONVERSE,78109,Judson ISD,20260100145,MORTGAGE,29.47212899990352,-98.32407750036221
7123 LUNAR ECLIPSE,CONVERSE,78109,Judson ISD,20260100148,MORTGAGE,29.459178000256344,-98.34828299978831
8059 INTERSTATE 10 E,CONVERSE,78109,Judson ISD,20260100152,MORTGAGE,29.458538999739638,-98.33192099972432
7515 PERCHERON WAY,ELMENDORF,78112,East Central ISD,20260100120,MORTGAGE,29.276622000148027,-98.3416545003596
4807 LOST HILLS DR,ELMENDORF,78112,Southside ISD,20260100156,MORTGAGE,29.172924000229422,-98.40366900043371
17503 JUAN CANTU DR,ELMENDORF,78112,East Central ISD,20260100157,MORTGAGE,29.248866000241136,-98.3406734994894
23003 WHITE HICKORY,ELMENDORF,78112,Southside ISD,20260100158,MORTGAGE,29.18248199986916,-98.39594700001089
10223 HUISACHE FLD,HELOTES,78023,Northside ISD (Bexar),20260100021,MORTGAGE,29.54673900029331,-98.69305950050851
12914 CHINALI SPRINGS,SAINT HEDWIG,78152,East Central ISD,20260100041,MORTGAGE,29.45903400041535,-98.23016250026637
12914 CHINALI SPRINGS,SAINT HEDWIG,78152,East Central ISD,20260100042,MORTGAGE,29.45903400041535,-98.23016250026637
12867 RATCLIFF LAKE,SAINT HEDWIG,78152,East Central ISD,20260100115,MORTGAGE,29.464631999816895,-98.22886650023305
214 CAMEO AVE,SAN ANTONIO,78214,Harlandale ISD,20260100001,MORTGAGE,29.37481200030367,-98.51028299950731
703 W HUTCHINS PL,SAN ANTONIO,78221,Harlandale ISD,20260100002,MORTGAGE,29.345859000098006,-98.51471549975238
7111 ANDTREE BLVD,SAN ANTONIO,78250,Northside ISD (Bexar),20260100003,MORTGAGE,29.505708000130095,-98.66682899999564
5814 MONICA PL,SAN ANTONIO,78228,Northside ISD (Bexar),20260100005,MORTGAGE,29.451824999615084,-98.60121450000257
124 WAGON TRAIL RD,SAN ANTONIO,78231,Northside ISD (Bexar),20260100006,MORTGAGE,29.595302999814898,-98.55900450021839
110 PIEGAN ST,SAN ANTONIO,78207,Edgewood ISD (Bexar),20260100007,MORTGAGE,29.413934999633067,-98.54590500000455
13203 MONTE RIO,SAN ANTONIO,78233,Northeast ISD,20260100008,MORTGAGE,29.559231000388166,-98.38754100014035
10642 ARABIAN SANDS,SAN ANTONIO,78254,Northside ISD (Bexar),20260100010,MORTGAGE,29.533617000122383,-98.70260849980028
13423 CANADIAN PARKE,SAN ANTONIO,78254,Northside ISD (Bexar),20260100013,MORTGAGE,29.522726999896094,-98.7587100000573
5823 FORT LARAMIE,SAN ANTONIO,78239,Northeast ISD,20260100014,MORTGAGE,29.531196000265712,-98.37413100030157
543 DRAKE AVE,SAN ANTONIO,78204,San Antonio ISD,20260100015,MORTGAGE,29.400327000101278,-98.52245099985504
7206 FAROS COURT,SAN ANTONIO,78233,Northeast ISD,20260100017,MORTGAGE,29.54852999993328,-98.34779249983983
10814 SHETLAND HLS,SAN ANTONIO,78254,Northside ISD (Bexar),20260100018,MORTGAGE,29.5373610001415,-98.70501599969603
14507 GOLD RUSH PASS,SAN ANTONIO,78254,Northside ISD (Bexar),20260100019,MORTGAGE,29.51711099984532,-98.7828885000358
403 E DREXEL AVE,SAN ANTONIO,78210,San Antonio ISD,20260100022,MORTGAGE,29.40078599995948,-98.4675285001063
2406 LEE HALL,SAN ANTONIO,78201,San Antonio ISD,20260100023,MORTGAGE,29.476035000446068,-98.53388999950752
106 STONE HILL DR,SAN ANTONIO,78258,Northeast ISD,20260100024,MORTGAGE,29.62306799965062,-98.50572449959539
16046 WATERING POINT DR,SAN ANTONIO,78247,Northeast ISD,20260100025,MORTGAGE,29.594969999861938,-98.40738150013316
3703 PIPERS FIELD,SAN ANTONIO,78251,Northside ISD (Bexar),20260100026,MORTGAGE,29.47051799961359,-98.64599399968174
3520 UNDER PAR,SAN ANTONIO,78245,Medina Valley ISD,20260100027,MORTGAGE,29.395179000026257,-98.71674300050032
87 CAMPDEN CIR,SAN ANTONIO,78218,Northeast ISD,20260100028,MORTGAGE,29.508453000244156,-98.4257550004246
238 POOL DR,SAN ANTONIO,78223,San Antonio ISD,20260100029,MORTGAGE,29.370555000237164,-98.43859800045651
1438 W MALONE AVE,SAN ANTONIO,78225,San Antonio ISD,20260100030,MORTGAGE,29.387691000061952,-98.5311810001586
9547 SANDY RIDGE WAY,SAN ANTONIO,78239,Judson ISD,20260100031,MORTGAGE,29.525660999727656,-98.3482290000423
1402 MARDELL ST,SAN ANTONIO,78201,San Antonio ISD,20260100032,MORTGAGE,29.484116999593102,-98.51705999952354
8219 RADIANT STAR,SAN ANTONIO,78252,Southwest ISD,20260100034,MORTGAGE,29.350313999738102,-98.63566649984185
7507 SWEET VALLEY ST,SAN ANTONIO,78242,South San Antonio ISD,20260100035,MORTGAGE,29.349927000085177,-98.61401249983552
19126 E BIRDSONG,SAN ANTONIO,78258,Northeast ISD,20260100036,MORTGAGE,29.622978000421135,-98.49503699960334
603 EUCLID,SAN ANTONIO,78212,San Antonio ISD,20260100037,MORTGAGE,29.436092999775067,-98.49839399965924
243 HARCOURT AVE,SAN ANTONIO,78223,San Antonio ISD,20260100038,MORTGAGE,29.36066400013072,-98.42933249975115
13511 VALLEY LAKE,SAN ANTONIO,78254,Northside ISD (Bexar),20260100039,MORTGAGE,29.519090999768242,-98.76327300008575
302 STOREYWOOD DR,SAN ANTONIO,78213,Northeast ISD,20260100040,MORTGAGE,29.50254000020575,-98.53243650007373
7703 PIPERS HL,SAN ANTONIO,78251,Northside ISD (Bexar),20260100043,MORTGAGE,29.470050000145775,-98.64199350021843
5838 CARY GRANT DR,SAN ANTONIO,78240,Northside ISD (Bexar),20260100044,MORTGAGE,29.503206000387298,-98.60289749968281
6974 APPLE VALLEY DR,SAN ANTONIO,78242,South San Antonio ISD,20260100045,MORTGAGE,29.361042000145016,-98.62193249972721
167 E HUTCHINS PL,SAN ANTONIO,78221,Harlandale ISD,20260100049,MORTGAGE,29.346471000428277,-98.50073400040502
7044 CONROE MILL,SAN ANTONIO,78253,Northside ISD (Bexar),20260100051,MORTGAGE,29.503493999874784,-98.73185399977714
427 HAZEL ST,SAN ANTONIO,78207,San Antonio ISD,20260100052,MORTGAGE,29.407599000203344,-98.52398999958305
3535 OAKHORNE ST,SAN ANTONIO,78247,Northeast ISD,20260100053,MORTGAGE,29.56871699967897,-98.42057550033975
21011 LA PENA DR,SAN ANTONIO,78258,Northeast ISD,20260100054,MORTGAGE,29.635479000301007,-98.49127500049674
24219 GAZANIA BLF,SAN ANTONIO,78260,Northeast ISD,20260100055,MORTGAGE,29.666781000074515,-98.51141700041521
1815 W WOODLAWN AVE,SAN ANTONIO,78201,San Antonio ISD,20260100056,MORTGAGE,29.454362999950433,-98.52676650008117
17015 BARKER PATH,SAN ANTONIO,78247,Northeast ISD,20260100057,MORTGAGE,29.595861000251954,-98.4277440005149
6010 PLEASANT LAKE,SAN ANTONIO,78222,East Central ISD,20260100058,MORTGAGE,29.382686999655647,-98.37431550048198
10300 QUAIL MEADOW,SAN ANTONIO,78230,Northside ISD (Bexar),20260100060,MORTGAGE,29.54097899981007,-98.54625600001935
255 LANARK DR,SAN ANTONIO,78218,Northeast ISD,20260100061,MORTGAGE,29.503530000252407,-98.4118139999497
5330 CALISTOGA ST,SAN ANTONIO,78228,Northside ISD (Bexar),20260100063,MORTGAGE,29.45395799969695,-98.5914584998773
5815 HEMATITE RIM,SAN ANTONIO,78222,East Central ISD,20260100065,MORTGAGE,29.37265200034305,-98.37701999977226
315 BRIGHTON,SAN ANTONIO,78214,Harlandale ISD,20260100066,MORTGAGE,29.375739000331432,-98.50781250049188
4130 TROPICAL DR,SAN ANTONIO,78218,Northeast ISD,20260100067,MORTGAGE,29.49213599980883,-98.41196699968512
5702 WOODGREEN,SAN ANTONIO,78218,Judson ISD,20260100068,MORTGAGE,29.47917600041307,-98.38577699953832
20502 BLUE TRINITY,SAN ANTONIO,78259,Northeast ISD,20260100069,MORTGAGE,29.631374999686898,-98.41197600051296
9950 PERMIAN BAY,SAN ANTONIO,78245,Northside ISD (Bexar),20260100072,MORTGAGE,29.408949000158614,-98.68892849958014
9251 ENCINO VILLAGE,SAN ANTONIO,78250,Northside ISD (Bexar),20260100073,MORTGAGE,29.50379100018961,-98.68340700046808
7738 CEDAR FARM,SAN ANTONIO,78239,Judson ISD,20260100076,MORTGAGE,29.499875999898137,-98.35839900001109
10222 FOSSIL VLY,SAN ANTONIO,78245,Northside ISD (Bexar),20260100077,MORTGAGE,29.39502600040211,-98.69226299953532
14109 MAY MIST,SAN ANTONIO,78253,Northside ISD (Bexar),20260100078,MORTGAGE,29.43165600019235,-98.7758910004276
4827 BLUE HERON ST,SAN ANTONIO,78217,Northeast ISD,20260100079,MORTGAGE,29.568608999921015,-98.3927249996394
227 W GLENVIEW DR,SAN ANTONIO,78228,San Antonio ISD,20260100084,MORTGAGE,29.483784000410914,-98.56312199955843
3510 GLACIER LK,SAN ANTONIO,78222,East Central ISD,20260100086,MORTGAGE,29.38173299964834,-98.37068400017529
7006 SPRING FOREST ST,SAN ANTONIO,78249,Northside ISD (Bexar),20260100087,MORTGAGE,29.550545999671694,-98.62730550051529
8319 SWEET MAIDEN ST,SAN ANTONIO,78242,Southwest ISD,20260100088,MORTGAGE,29.34495000012455,-98.59997699957546
123 CEDAR ST,SAN ANTONIO,78210,San Antonio ISD,20260100089,MORTGAGE,29.413322999803658,-98.49057299983176
746 TREATY OAK,SAN ANTONIO,78258,Northeast ISD,20260100090,MORTGAGE,29.6273429995989,-98.50792049995822
227 LEONIDAS DR,SAN ANTONIO,78220,San Antonio ISD,20260100091,MORTGAGE,29.41809300001865,-98.40843899954962
530 EL MONTE BLVD,SAN ANTONIO,78212,San Antonio ISD,20260100092,MORTGAGE,29.484963000105726,-98.50397400012012
25502 GOLD YARROW,SAN ANTONIO,78260,Comal ISD,20260100093,MORTGAGE,29.680037999863714,-98.46864900029921
15210 REDBIRD MNR,SAN ANTONIO,78253,Northside ISD (Bexar),20260100094,MORTGAGE,29.42838900018452,-98.79793649949744
1415 CANYON EDGE,SAN ANTONIO,78248,Northeast ISD,20260100095,MORTGAGE,29.602043999757864,-98.51455799961731
1035 COZUMEL EMERALD,SAN ANTONIO,78253,Northside ISD (Bexar),20260100096,MORTGAGE,29.443266000224593,-98.80194150044055
4902 TENNYSON DR,SAN ANTONIO,78217,Northeast ISD,20260100097,MORTGAGE,29.56428899991469,-98.39423249954645
5602 IVANHOE STREET,SAN ANTONIO,78228,Northside ISD (Bexar),20260100098,MORTGAGE,29.460860999885558,-98.59599899955471
5803 SLOAN DRIVE,SAN ANTONIO,78228,Northside ISD (Bexar),20260100099,MORTGAGE,29.461698000120215,-98.59940550038597
8642 FREDERICKSBURG RD,SAN ANTONIO,78240,Northside ISD (Bexar),20260100100,MORTGAGE,29.52288900026056,-98.5728149998989
12210 MOUNTAIN PINE,SAN ANTONIO,78254,Northside ISD (Bexar),20260100102,MORTGAGE,29.528091000018144,-98.73450899992257
6823 EMERALD VALLEY,SAN ANTONIO,78242,South San Antonio ISD,20260100103,MORTGAGE,29.362257000203734,-98.60233499983023
14411 PERCHIN STREET,SAN ANTONIO,78247,Northeast ISD,20260100104,MORTGAGE,29.572910999761703,-98.38634400049479
6722 TEHAMA GATE,SAN ANTONIO,78223,San Antonio ISD,20260100105,MORTGAGE,29.360538000334756,-98.41690350046977
182 MOON VALLEY DRIVE,SAN ANTONIO,78227,Northside ISD (Bexar),20260100106,MORTGAGE,29.369817000347048,-98.64343350020626
9210 HAVELOCK STREET,SAN ANTONIO,78254,Northside ISD (Bexar),20260100110,MORTGAGE,29.52890099963803,-98.66102850000595
315 JUNIPER STREET,SAN ANTONIO,78223,East Central ISD,20260100111,MORTGAGE,29.33270100030911,-98.42525550042753
911 VANCE JACKSON,SAN ANTONIO,78201,San Antonio ISD,20260100112,MORTGAGE,29.480463000320977,-98.53518600038635
5218 GRAY BUFFALO ST,SAN ANTONIO,78242,Southwest ISD,20260100113,MORTGAGE,29.336706000210917,-98.59877550020407
11503 LAZY BIRD LN,SAN ANTONIO,78223,East Central ISD,20260100114,MORTGAGE,29.300651999971112,-98.40358350023256
6315 BALKY ST,SAN ANTONIO,78240,Northside ISD (Bexar),20260100116,MORTGAGE,29.5081740000467,-98.61077249950296
3134 MAJESTIC DR,SAN ANTONIO,78228,Northside ISD (Bexar),20260100117,MORTGAGE,29.46867299980841,-98.59421249961655
1038 OLNEY DR,SAN ANTONIO,78218,Northeast ISD,20260100118,MORTGAGE,29.490003000010912,-98.42277150050508
15223 COMANCHE WOLF,SAN ANTONIO,78233,Northeast ISD,20260100121,MORTGAGE,29.583368999767348,-98.3544975004909
1114 AIDENBAUM,SAN ANTONIO,78260,Comal ISD,20260100124,MORTGAGE,29.723903999970993,-98.47204650029474
7739 DASHWOOD,SAN ANTONIO,78240,Northside ISD (Bexar),20260100125,MORTGAGE,29.505087000285126,-98.60607450016884
1030 W HUISACHE AVE,SAN ANTONIO,78201,San Antonio ISD,20260100126,MORTGAGE,29.45555100001593,-98.51115600032121
210 WEST MAGNOLIA AVE,SAN ANTONIO,78212,San Antonio ISD,20260100127,MORTGAGE,29.454596999765062,-98.49604949989227
208 RAYBURN DR,SAN ANTONIO,78221,Harlandale ISD,20260100128,MORTGAGE,29.357541000098912,-98.50626449986122
423 BARRETT PL,SAN ANTONIO,78225,San Antonio ISD,20260100129,MORTGAGE,29.394989999722924,-98.52489000015424
5326 SAN SIMEON DR,SAN ANTONIO,78228,Northside ISD (Bexar),20260100130,MORTGAGE,29.449800000410093,-98.59126049955691
2440 POTOSI ST,SAN ANTONIO,78207,San Antonio ISD,20260100131,MORTGAGE,29.415023999828893,-98.53997400050233
5330 SOUTHAMPTON DR,SAN ANTONIO,78228,Northside ISD (Bexar),20260100132,MORTGAGE,29.46301199990106,-98.5920975003119
1403 BARKMORE,SAN ANTONIO,78258,Northeast ISD,20260100134,MORTGAGE,29.61420299973887,-98.51544899966811
5607 SPRING QUAIL,SAN ANTONIO,78247,Northeast ISD,20260100135,MORTGAGE,29.577275999633095,-98.38596600008698
1915 W SOUTHCROSS BLVD,SAN ANTONIO,78211,Harlandale ISD,20260100136,MORTGAGE,29.36830500015023,-98.53794899955787
13547 CARLTON OAKS DR,SAN ANTONIO,78232,Northeast ISD,20260100137,MORTGAGE,29.56699799998117,-98.45792550022674
451 E MITCHELL ST,SAN ANTONIO,78210,San Antonio ISD,20260100138,MORTGAGE,29.391237000130353,-98.48395349960774
7307 SHADOW TRL,SAN ANTONIO,78244,Judson ISD,20260100140,MORTGAGE,29.49923700037058,-98.32963500035811
16050 WALNUT CREEK DR,SAN ANTONIO,78247,Northeast ISD,20260100141,MORTGAGE,29.595951000252185,-98.40378149986228
6035 WHISPERING LAKE,SAN ANTONIO,78222,East Central ISD,20260100142,MORTGAGE,29.38385699990612,-98.37297899994492
3426 CHATEAU DR,SAN ANTONIO,78219,San Antonio ISD,20260100144,MORTGAGE,29.440133999670167,-98.43053849955632
8947 SEACLIFF ST,SAN ANTONIO,78242,Southwest ISD,20260100147,MORTGAGE,29.33733599962096,-98.60556599953932
30 AMBER FRST,SAN ANTONIO,78232,Northeast ISD,20260100149,MORTGAGE,29.59819200030972,-98.4751650004944
3233 NW LOOP 410,SAN ANTONIO,78213,Northeast ISD,20260100150,MORTGAGE,29.50608599992138,-98.54757449993593
26952 RUSTIC BRK,SAN ANTONIO,78261,Comal ISD,20260100151,MORTGAGE,29.699711999919987,-98.44253099999145
446 HERMINE BOULEVARD,SAN ANTONIO,78212,San Antonio ISD,20260100159,MORTGAGE,29.483027999874952,-98.50412699982955
11518 HANSONS FOREST,SCHERTZ,78154,Schertz-Cibolo-Universal City ISD,20260100064,MORTGAGE,29.52935100042925,-98.2558844994886
3116 PENCIL CHOLLA,SCHERTZ,78154,Schertz-Cibolo-Universal City ISD,20260100122,MORTGAGE,29.51822699985152,-98.2492920004319
8755 PARK OLYMPIA,UNIVERSAL CITY,78148,Judson ISD,20260100082,MORTGAGE,29.558853000341653,-98.31053250025697
7659 MISSION LEDGE,BOERNE,78015,Northside ISD (Bexar),20251200077,MORTGAGE,29.68627499972297,-98.63653499981606
9802 COPPERWAY,CONVERSE,78109,Judson ISD,20251200022,MORTGAGE,29.503979999915458,-98.29173149967565
6858 CELES MEADOW DR,CONVERSE,78109,Judson ISD,20251200118,MORTGAGE,29.487528000326172,-98.31631500025831
6921 SUNSPOT,CONVERSE,78109,Judson ISD,20251200140,MORTGAGE,29.46438000042675,-98.35105499973051
6714 SHIRAZ WAY,CONVERSE,78109,Judson ISD,20251200175,MORTGAGE,29.493620999798043,-98.3064195001531
14411 ROCKHOUSE RD,ELMENDORF,78112,East Central ISD,20251200015,MORTGAGE,29.27674799966696,-98.34034949999558
10514 FAR REACHES LANE,HELOTES,78023,Northside ISD (Bexar),20251200169,MORTGAGE,29.589075000387318,-98.69961599999641
9318 GRAND CEDAR,HELOTES,78023,Northside ISD (Bexar),20251200191,MORTGAGE,29.56210200038684,-98.66840850032408
10607 REVOLVER TRAIL,HELOTES,78023,Northside ISD (Bexar),20251200198,MORTGAGE,29.542652999705698,-98.73456300023139
13419 LANDON WAY,SAINT HEDWIG,78152,Schertz-Cibolo-Universal City ISD,20251200062,MORTGAGE,29.478239999994827,-98.2182735003733
10311 TIPPECANOE DR,SAN ANTONIO,78245,Northside ISD (Bexar),20251200001,MORTGAGE,29.43170099982488,-98.68550849980986
10714 MANOR CREEK,SAN ANTONIO,78245,Northside ISD (Bexar),20251200002,MORTGAGE,29.427075000282915,-98.70355799967501
711 S BROWNLEAF ST,SAN ANTONIO,78227,Northside ISD (Bexar),20251200013,MORTGAGE,29.427516000377203,-98.61732449955791
3418 STARBEND ST,SAN ANTONIO,78217,Northeast ISD,20251200016,MORTGAGE,29.539881000425698,-98.43064199988788
8902 LAGUNA FALLS,SAN ANTONIO,78251,Northside ISD (Bexar),20251200017,MORTGAGE,29.478104999780896,-98.66048849986497
9426 BUTTERFLY BND,SAN ANTONIO,78224,Harlandale ISD,20251200018,MORTGAGE,29.326779000223237,-98.52075900051517
143 BAYVILLE DR,SAN ANTONIO,78226,Edgewood ISD (Bexar),20251200026,MORTGAGE,29.39566499967258,-98.56047150042949
12443 ALSTROEMERIA,SAN ANTONIO,78253,Northside ISD (Bexar),20251200032,MORTGAGE,29.48543999995607,-98.74082249964627
10422 GREEN LAKE DR,SAN ANTONIO,78223,East Central ISD,20251200033,MORTGAGE,29.317688999927697,-98.38296000001249
9779 HIDDEN ROCK,SAN ANTONIO,78250,Northside ISD (Bexar),20251200048,MORTGAGE,29.495474999552,-98.69517000005264
7227 DUCK POND,SAN ANTONIO,78252,Medina Valley ISD,20251200051,MORTGAGE,29.358585000087828,-98.77363200023827
15111 PINTAIL,SAN ANTONIO,78253,Northside ISD (Bexar),20251200054,MORTGAGE,29.439909000395748,-98.79572250012937
5307 FLYING HOOVES,SAN ANTONIO,78222,East Central ISD,20251200055,MORTGAGE,29.388411000241625,-98.38359900017
9423 MARSH STRAW,SAN ANTONIO,78254,Northside ISD (Bexar),20251200058,MORTGAGE,29.53261800033409,-98.75936249993768
3626 ATRIUM PEAK,SAN ANTONIO,78261,Northeast ISD,20251200060,MORTGAGE,29.678318999881697,-98.43003450028195
9934 TAMPKE FALLS,SAN ANTONIO,78245,Southwest ISD,20251200061,MORTGAGE,29.3889329996339,-98.68753350046435
2422 SPICEWOOD DR,SAN ANTONIO,78213,Northeast ISD,20251200064,MORTGAGE,29.510477999807332,-98.53239149964959
2402 VALENCIA,SAN ANTONIO,78237,Edgewood ISD (Bexar),20251200068,MORTGAGE,29.403837000152624,-98.56981799991524
431 DRAKE AVE,SAN ANTONIO,78204,San Antonio ISD,20251200069,MORTGAGE,29.400065999719555,-98.51956650023345
5411 PLUMTREE DR,SAN ANTONIO,78242,South San Antonio ISD,20251200076,MORTGAGE,29.36710799972765,-98.60131349990866
13926 WOOL PARK,SAN ANTONIO,78252,Medina Valley ISD,20251200081,MORTGAGE,29.362643999765034,-98.77234500021639
6806 COUGAR COVE,SAN ANTONIO,78242,South San Antonio ISD,20251200082,MORTGAGE,29.36582999980734,-98.62225650035286
2402 CLARA LANE,SAN ANTONIO,78213,Northeast ISD,20251200089,MORTGAGE,29.49380099997925,-98.53127550004007
8710 HAMER RANCH,SAN ANTONIO,78254,Northside ISD (Bexar),20251200093,MORTGAGE,29.52419399973746,-98.76457799984794
11731 SPRING LIFE DRIVE,SAN ANTONIO,78249,Northside ISD (Bexar),20251200094,MORTGAGE,29.55504599968934,-98.62376850019454
9208 BOWEN DRIVE,SAN ANTONIO,78250,Northside ISD (Bexar),20251200095,MORTGAGE,29.515581000451476,-98.67598650047096
5415 OX BOW,SAN ANTONIO,78228,Northside ISD (Bexar),20251200098,MORTGAGE,29.46617099959947,-98.5928535005134
4607 CROPLAND WAY,SAN ANTONIO,78253,Northside ISD (Bexar),20251200099,MORTGAGE,29.47815000001248,-98.74981350002896
4140 WATERFALL COVE,SAN ANTONIO,78223,East Central ISD,20251200102,MORTGAGE,29.27791799956314,-98.41110749992004
1918 SUNDROP BAY,SAN ANTONIO,78224,South San Antonio ISD,20251200109,MORTGAGE,29.33824500020888,-98.5385609997366
21236 BOULDER FLATS,SAN ANTONIO,78266,Northeast ISD,20251200110,MORTGAGE,29.639052000218644,-98.38352250001485
16602 HUNTING VALLEY ST,SAN ANTONIO,78247,Northeast ISD,20251200111,MORTGAGE,29.59195500020746,-98.36266499955771
13715 SUNNYDALE PASS,SAN ANTONIO,78245,Northside ISD (Bexar),20251200115,MORTGAGE,29.41386299971131,-98.76476249982645
1807 SANTA BARBARA,SAN ANTONIO,78201,San Antonio ISD,20251200119,MORTGAGE,29.47057199985644,-98.52466500015605
231 COVINA AVE,SAN ANTONIO,78218,Northeast ISD,20251200120,MORTGAGE,29.498463000142483,-98.40995099952016
927 MOREY PEAK DR,SAN ANTONIO,78213,Northeast ISD,20251200122,MORTGAGE,29.536245000104316,-98.50803749971189
4330 ROARK DR,SAN ANTONIO,78219,San Antonio ISD,20251200128,MORTGAGE,29.42516699996257,-98.41049099980165
12249 CASHTON,SAN ANTONIO,78252,Medina Valley ISD,20251200130,MORTGAGE,29.360880000427745,-98.73679499952614
12088 LUCKEY VILLA,SAN ANTONIO,78252,Medina Valley ISD,20251200131,MORTGAGE,29.355237000409378,-98.73472499964153
630 SW 40TH ST,SAN ANTONIO,78237,Edgewood ISD (Bexar),20251200137,MORTGAGE,29.422052999716417,-98.58181500017623
730 FIRENZE AVENUE,SAN ANTONIO,78245,Northside ISD (Bexar),20251200157,MORTGAGE,29.424653999601183,-98.80387650029903
16919 BASIN OAK,SAN ANTONIO,78247,Northeast ISD,20251200158,MORTGAGE,29.595843000103066,-98.37166950029778
5154 MAYSPRING,SAN ANTONIO,78217,Northeast ISD,20251200167,MORTGAGE,29.56950900044902,-98.38856700023202
6437 KINGSLEY EDGE,SAN ANTONIO,78252,Medina Valley ISD,20251200172,MORTGAGE,29.36777399976411,-98.75391749949043
15610 SMOKY HONEYEATER,SAN ANTONIO,78253,Northside ISD (Bexar),20251200173,MORTGAGE,29.444616000426247,-98.80132949977555
2634 HOMESTEAD LOOP,SAN ANTONIO,78245,Medina Valley ISD,20251200174,MORTGAGE,29.405330999760377,-98.7183134999141
10342 OAKWOOD CREST,SAN ANTONIO,78245,Northside ISD (Bexar),20251200177,MORTGAGE,29.421441000420455,-98.69483700001292
3447 REDBUD GRV,SAN ANTONIO,78264,Southside ISD,20251200178,MORTGAGE,29.213226000334178,-98.43125850000303
2703 GUNSMOKE ST,SAN ANTONIO,78227,Northside ISD (Bexar),20251200181,MORTGAGE,29.402559000174815,-98.64589499961939
9122 MARE COUNTRY,SAN ANTONIO,78254,Northside ISD (Bexar),20251200184,MORTGAGE,29.52595800023009,-98.70698249957034
622 SENISA DR,SAN ANTONIO,78228,San Antonio ISD,20251200185,MORTGAGE,29.46246299983835,-98.55671400041406
6831 LOMA BLANCA,SAN ANTONIO,78233,Northeast ISD,20251200186,MORTGAGE,29.56380300026391,-98.35355699955834
2663 W MULBERRY AVE,SAN ANTONIO,78228,San Antonio ISD,20251200187,MORTGAGE,29.458520999848595,-98.54940599981443
13623 ARROYO SECO,SAN ANTONIO,78223,East Central ISD,20251200188,MORTGAGE,29.284775999754814,-98.40730499949682
10822 EDGECREST DRIVE,SAN ANTONIO,78217,Northeast ISD,20251200190,MORTGAGE,29.541311999784973,-98.42935049952543
3819 PALO SOLO,SAN ANTONIO,78223,East Central ISD,20251200196,MORTGAGE,29.35149300043863,-98.42044950003539
7462 RADFORD TRL,SAN ANTONIO,78244,Judson ISD,20251200197,MORTGAGE,29.50666200005149,-98.33140349989674
13911 ANCHOR WAY,SAN ANTONIO,78245,Medina Valley ISD,20251200202,MORTGAGE,29.382119999699803,-98.76390300026546
614 SUNHAVEN DR,SAN ANTONIO,78239,Northeast ISD,20251200203,MORTGAGE,29.511143999791777,-98.37599850017227
8562 ECHO CREEK LN,SAN ANTONIO,78240,Northside ISD (Bexar),20251200205,MORTGAGE,29.52100800043055,-98.61125850018502
312 LEIGH ST,SAN ANTONIO,78210,San Antonio ISD,20251200206,MORTGAGE,29.41208999981205,-98.48532599980746
5622 EDIE ADAMS DR,SAN ANTONIO,78240,Northside ISD (Bexar),20251200207,MORTGAGE,29.500991999943846,-98.59707000035529
7202 SILOS RIDGE,SAN ANTONIO,78252,Medina Valley ISD,20251200208,MORTGAGE,29.35947599973433,-98.76969450044541
503 RASA DR,SAN ANTONIO,78227,Northside ISD (Bexar),20251200209,MORTGAGE,29.405601000169696,-98.66016900031289
18 LINDEN AVE,SAN ANTONIO,78211,Harlandale ISD,20251200210,MORTGAGE,29.367171000430293,-98.52110550030554
9715 PLEASANTON PL,SAN ANTONIO,78221,Southside ISD,20251200211,MORTGAGE,29.321100000425595,-98.49905099988108
4142 MESA CV,SAN ANTONIO,78237,Edgewood ISD (Bexar),20251200213,MORTGAGE,29.427777000222754,-98.58931650011908
980 HEDGESTONE DR,SAN ANTONIO,78258,Northeast ISD,20251200275,MORTGAGE,29.648564999898362,-98.50126499953994
447 RASA DR,SAN ANTONIO,78227,Northside ISD (Bexar),20251200312,MORTGAGE,29.40558300027669,-98.65930950030982
11354 FIRE CYN,SAN ANTONIO,78252,Southwest ISD,20251200318,MORTGAGE,29.373624000220403,-98.71663050000376
6119 AMHERST BAY,SAN ANTONIO,78249,Northside ISD (Bexar),20251200323,MORTGAGE,29.567871000351854,-98.60755949971967
3310 STONEY BAYOU,SAN ANTONIO,78245,Medina Valley ISD,20251200325,MORTGAGE,29.397590999947198,-98.72973449952677
4514 TODDS FARM,SAN ANTONIO,78244,Judson ISD,20251200326,MORTGAGE,29.469636000315738,-98.36936100037816
4543 ZOE PASS,SAN ANTONIO,78222,East Central ISD,20251200327,MORTGAGE,29.360852999640432,-98.40704399993389
1410 HUMMINGBIRD,SAN ANTONIO,78245,Northside ISD (Bexar),20251200328,MORTGAGE,29.419442999945886,-98.71373699953087
11839 PARLIAMENT ST,SAN ANTONIO,78216,Northeast ISD,20251200329,MORTGAGE,29.550456000251433,-98.50886550041307
122 EAST ACKARD PLACE,SAN ANTONIO,78221,Harlandale ISD,20251200352,MORTGAGE,29.343573000199967,-98.49949650031625
16410 KENTUCKY RIDGE,SCHERTZ,78154,Judson ISD,20251200014,MORTGAGE,29.588517000199946,-98.33553000031381
8122 ROSESPUR PARK,SCHERTZ,78154,Judson ISD,20251200195,MORTGAGE,29.582838000233618,-98.32641300047561
5218 GALACINO ST,SAN ANTONIO,78247,Northeast ISD,20251100186,MORTGAGE,29.577032999930992,-98.38771649991679
13027 REMUDA TERR,SAN ANTONIO,78254,Northside ISD (Bexar),20251100187,MORTGAGE,29.532969000214297,-98.75107350002651
5502 WALES ST,SAN ANTONIO,78223,San Antonio ISD,20251100190,MORTGAGE,29.371265999976437,-98.43138899985854
3431 HEATHER BLF,SAN ANTONIO,78259,Northeast ISD,20251100299,MORTGAGE,29.64182399997939,-98.42759099972757
7755 SAN MIRIENDA,BOERNE,78015,Northside ISD (Bexar),20260100146,MORTGAGE,29.69228699993379,-98.6369490003065
17115 NUEVA VIDA LN,ATASCOSA,78002,Southwest ISD,20260100155,MORTGAGE,29.253617999648725,-98.7540615001002
7718 PARAISO CIR,BOERNE,78015,Boerne ISD,20260100108,MORTGAGE,29.703986999665926,-98.63271899958016
6630 E MICHAEL LOOP,SAN ANTONIO,78253,Medina Valley ISD,20260100139,MORTGAGE,29.499343331748534,-98.78958966547692
3362 ARAGON DR,SAN ANTONIO,78211,Southwest ISD,20260100080,MORTGAGE,29.324014439180146,-98.56095189862012
18610 LUCKEY ROAD,ATASCOSA,78002,Southwest ISD,20251100194,MORTGAGE,29.240215052589612,-98.74674708794721
17540 BLANCO RD,SAN ANTONIO,78232,Northeast ISD,20260100161,MORTGAGE,29.601422999717485,-98.5075469998632
231 MEADOW PATH DRIVE,SAN ANTONIO,78227,Northside ISD (Bexar),20260100168,MORTGAGE,29.42396100035515,-98.64595799983722
519 E RECTOR ST,SAN ANTONIO,78216,Northeast ISD,20260100170,MORTGAGE,29.51748899988937,-98.48684250015633
10611 TIGER HORSE CV,SAN ANTONIO,78254,Northside ISD (Bexar),20260100171,MORTGAGE,29.532743999793993,-98.70237449980058
9710 FALCON BAY,CONVERSE,78109,Judson ISD,20260100174,MORTGAGE,29.52577800018206,-98.30045699962689
2223 HAYS ST,SAN ANTONIO,78202,San Antonio ISD,20260100176,MORTGAGE,29.4302160000633,-98.44643700049224
7906 BELMONT RDG,SCHERTZ,78154,Judson ISD,20260100178,MORTGAGE,29.5905150001479,-98.3323260003875
10046 RUIDOSA,SAN ANTONIO,78214,Southside ISD,20260100179,MORTGAGE,29.31606000039786,-98.46923849993156
131 MEADOW VALLEY ST,SAN ANTONIO,78227,Southwest ISD,20260100180,MORTGAGE,29.36618099998032,-98.63980199974671
2004 PALMER PL,CONVERSE,78109,East Central ISD,20260100182,MORTGAGE,29.445588000080427,-98.28933299964845
715 OBAN DR,SAN ANTONIO,78216,Northeast ISD,20260100188,MORTGAGE,29.511719999881223,-98.50448699968041
1315 COLDWATER DR,SAN ANTONIO,78245,Northside ISD (Bexar),20260100191,MORTGAGE,29.42073900037996,-98.67346200025247
2622 LAKEHAVEN,SAN ANTONIO,78222,East Central ISD,20260100196,MORTGAGE,29.395484999877752,-98.37591299955767
7809 BRIARGATE DR,SAN ANTONIO,78230,Northeast ISD,20260100197,MORTGAGE,29.508984000262654,-98.54475749993723
2416 W MULBERRY AVE,SAN ANTONIO,78228,San Antonio ISD,20260100198,MORTGAGE,29.458799999736765,-98.5412160000913
114 YALE AVE,SAN ANTONIO,78201,San Antonio ISD,20260100200,MORTGAGE,29.446308000330067,-98.51161500001695
8318 TAVERN POINT,SAN ANTONIO,78254,Northside ISD (Bexar),20260100201,MORTGAGE,29.517605999837965,-98.70191999962306
4211 HAVENVIEW DR,SAN ANTONIO,78228,Northside ISD (Bexar),20260100202,MORTGAGE,29.474180999834022,-98.56780649983516
1310 BARTON CREEK,SAN ANTONIO,78258,Northeast ISD,20260100203,MORTGAGE,29.615238000396076,-98.51458949967336
23418 SEVEN WINDS,SAN ANTONIO,78258,Northeast ISD,20260100204,MORTGAGE,29.658248999942124,-98.4666284998629
206 PLAINVIEW DR,SAN ANTONIO,78228,Edgewood ISD (Bexar),20260100205,MORTGAGE,29.446821000317865,-98.56800449991003
19230 FM 1937,SAN ANTONIO,78221,Southside ISD,20260100206,MORTGAGE,29.233233000047274,-98.4564405000234
247 MARMOK AVE,SAN ANTONIO,78220,San Antonio ISD,20260100207,MORTGAGE,29.418947999993836,-98.42946749950463
6615 LAKE CLIFF ST,SAN ANTONIO,78244,Judson ISD,20260100208,MORTGAGE,29.476179000015055,-98.35763399952569
4614 CAMBRAY DR,SAN ANTONIO,78229,Northside ISD (Bexar),20260100209,MORTGAGE,29.49377399990414,-98.57660399950771
6431 KESTREL LANE,SAN ANTONIO,78233,Northeast ISD,20260100210,MORTGAGE,29.556233999915015,-98.36055450012806
926 RIGSBY AVE,SAN ANTONIO,78210,San Antonio ISD,20260100211,MORTGAGE,29.398265999818864,-98.45547749998931
9622 CHELMSFORD DR,SAN ANTONIO,78239,Judson ISD,20260100212,MORTGAGE,29.526192000428665,-98.35054650006417
310 DE SOTO DR,UNIVERSAL CITY,78148,Judson ISD,20260100216,MORTGAGE,29.552057999894128,-98.31645000000664
9139 LYTLE AVE,SAN ANTONIO,78224,South San Antonio ISD,20260100220,MORTGAGE,29.33143200013249,-98.54167050027077
427 JENNINGS AVE,SAN ANTONIO,78225,San Antonio ISD,20260100222,MORTGAGE,29.391902999686497,-98.52777449999861
14239 SAGE TRAIL,SAN ANTONIO,78231,Northeast ISD,20260100223,MORTGAGE,29.57165999996232,-98.52976799975684
14026 ROLLER MLS,SAN ANTONIO,78245,Medina Valley ISD,20260100224,MORTGAGE,29.390814000127595,-98.77422150029187
8810 WHITE CROWN,SAN ANTONIO,78254,Northside ISD (Bexar),20260100226,MORTGAGE,29.522898000367224,-98.72898749955131
5110 LAKEBEND EAST DR,SAN ANTONIO,78244,Judson ISD,20260100227,MORTGAGE,29.47329000000674,-98.34929999990146
7806 SAREPTO,SAN ANTONIO,78239,Judson ISD,20260100228,MORTGAGE,29.50486199955093,-98.35363799960965
3335 TREE GROVE,SAN ANTONIO,78247,Northeast ISD,20260100229,MORTGAGE,29.570525999593205,-98.427654000205
11501 BRAESVIEW,SAN ANTONIO,78213,Northeast ISD,20260100230,MORTGAGE,29.546352000252284,-98.52880050031587
11501 BRAESVIEW,SAN ANTONIO,78213,Northeast ISD,20260100232,MORTGAGE,29.546352000252284,-98.52880050031587
3907 ANAQUA DR,ELMENDORF,78112,Southside ISD,20260100234,MORTGAGE,29.184533999642277,-98.41713749992374
23139 WHITE HICKORY,ELMENDORF,78112,Southside ISD,20260100235,MORTGAGE,29.178648000075896,-98.39651399999505
2709 COMMERCIAL AVE,SAN ANTONIO,78221,Harlandale ISD,20260100237,MORTGAGE,29.350286999680783,-98.51655149953463
9107 MIRECOURT,SAN ANTONIO,78250,Northside ISD (Bexar),20260100238,MORTGAGE,29.52398699969975,-98.67675599951974
9239 RIDGE SHADOW,SAN ANTONIO,78250,Northside ISD (Bexar),20260100239,MORTGAGE,29.495267999767954,-98.67222449950468
8815 SEBEC CIRCLE,SAN ANTONIO,78250,Northside ISD (Bexar),20260100240,MORTGAGE,29.523059999679294,-98.67402450040255
10607 COSMOS CANYON,HELOTES,78023,Northside ISD (Bexar),20260100241,MORTGAGE,29.54417400013026,-98.70008399999811
9007 PHOENIX PARK,CONVERSE,78109,East Central ISD,20260100242,MORTGAGE,29.46951900031907,-98.3102850000272
25859 GREEN TER,SAN ANTONIO,78255,Northside ISD (Bexar),20260100243,MORTGAGE,29.686211999715564,-98.65989000019448
903 COTTONWOOD AVE,SAN ANTONIO,78225,San Antonio ISD,20260100244,MORTGAGE,29.386467000442526,-98.52170850050521
2010 SILVER MOUNTAIN,SAN ANTONIO,78264,Somerset ISD,20260100245,MORTGAGE,29.19118499968442,-98.54134200027308
6030 PLESANT MEADOW,SAN ANTONIO,78222,East Central ISD,20260100246,MORTGAGE,29.39040000002311,-98.37043200017942
4937 CHAMPLAIN,SAN ANTONIO,78217,Northeast ISD,20260100247,MORTGAGE,29.56559399959736,-98.39044349971704
3210 SHADY SPRINGS DR,SAN ANTONIO,78230,Northeast ISD,20260100250,MORTGAGE,29.512206000175915,-98.54640900032378
7526 APPLE VALLEY DR,SAN ANTONIO,78242,Southwest ISD,20260100253,MORTGAGE,29.34846899991036,-98.62181999972096
507 ROTARY,SAN ANTONIO,78202,San Antonio ISD,20260100255,MORTGAGE,29.433600000029386,-98.44541100001726
7430 AUTUMN LEDGE,CONVERSE,78109,Judson ISD,20260100256,MORTGAGE,29.49653699984316,-98.294958000207
829 W BITTERS RD,SAN ANTONIO,78216,Northeast ISD,20260100257,MORTGAGE,29.582028000139232,-98.50529699998789
8819 FIVE PALMS DR,SAN ANTONIO,78242,Southwest ISD,20260100259,MORTGAGE,29.34234900024633,-98.60705099950104
5919 PADDOCK DR,SAN ANTONIO,78238,Northside ISD (Bexar),20260100261,MORTGAGE,29.45345400026384,-98.60358149989844
4434 AVENIDA PRIMA ST,SAN ANTONIO,78233,Northeast ISD,20260100263,MORTGAGE,29.544740999848827,-98.4041774994944
10915 ALMOND CREST,SAN ANTONIO,78233,Northeast ISD,20260100264,MORTGAGE,29.532735000211247,-98.35181099967032
254 CARROLL ST,SAN ANTONIO,78225,San Antonio ISD,20260100265,MORTGAGE,29.39202000007875,-98.52399450000289
10226 SAN PEDRO AVE,SAN ANTONIO,78216,Northeast ISD,20260100270,MORTGAGE,29.534355000091313,-98.49365100027647
1303 LOCKHILL SELMA RD,SAN ANTONIO,78213,Northeast ISD,20260100272,MORTGAGE,29.529792000291483,-98.5129874995346
5104 TUPELO ROW,SAN ANTONIO,78263,East Central ISD,20260100273,MORTGAGE,29.371949999906498,-98.31195899994401
615 AVANT AVE,SAN ANTONIO,78210,San Antonio ISD,20260100281,MORTGAGE,29.395565999952588,-98.46271349967473
4331 STETSON RUN,SAN ANTONIO,78223,East Central ISD,20260100289,MORTGAGE,29.288942999858527,-98.4038759999666
7655 RIMHURST,SAN ANTONIO,78250,Northside ISD (Bexar),20260100290,MORTGAGE,29.51478900028966,-98.69005350019533
3134 CANAVERAL DR,SAN ANTONIO,78217,Northeast ISD,20260100291,MORTGAGE,29.529305999635366,-98.43675749969194
7714 BIT CIR,ELMENDORF,78112,East Central ISD,20260100293,MORTGAGE,29.276784000346257,-98.33751900050261
15115 OAK BRIAR,SAN ANTONIO,78232,Northeast ISD,20260100295,MORTGAGE,29.57479199964158,-98.4520485001496
8402 VIA VERONA,SAN ANTONIO,78227,Northside ISD (Bexar),20260100296,MORTGAGE,29.393100000122338,-98.65209600036015
10302 LITTLE SUGAR CREEK,CONVERSE,78109,Judson ISD,20260100300,MORTGAGE,29.53157399977672,-98.32653449990156
639 WESTFALL AVE,SAN ANTONIO,78210,San Antonio ISD,20260100302,MORTGAGE,29.403036000005276,-98.4660120003867
305 W POPLAR ST,SAN ANTONIO,78212,San Antonio ISD,20260100303,MORTGAGE,29.439818999772918,-98.49722399992967
2721 W CESAR E CHAVEZ BLVD,SAN ANTONIO,78207,San Antonio ISD,20260100304,MORTGAGE,29.42418600025882,-98.52827399988143
1407 W WOODLAWN AVE,SAN ANTONIO,78201,San Antonio ISD,20260100305,MORTGAGE,29.453409000397155,-98.51726250038813
118 DAVIS CT,SAN ANTONIO,78209,San Antonio ISD,20260100317,MORTGAGE,29.46644999961316,-98.46282600034603
638 CANTON,SAN ANTONIO,78202,San Antonio ISD,20260100326,MORTGAGE,29.424042000058833,-98.45291249965636
10511 WELDER OAK,SAN ANTONIO,78223,East Central ISD,20260100327,MORTGAGE,29.312873999936706,-98.43535349981003
8718 SILVER QUAIL,SAN ANTONIO,78250,Northside ISD (Bexar),20260100328,MORTGAGE,29.503142999575417,-98.65083599958184
8014 MIRANDA CANYON,SAN ANTONIO,78252,Southwest ISD,20260100329,MORTGAGE,29.348244000037756,-98.63355600042821
127 CONRAD ST,SAN ANTONIO,78210,San Antonio ISD,20260100330,MORTGAGE,29.403144000373377,-98.48205450040021
822 COWHIDE DR,SAN ANTONIO,78260,Comal ISD,20260100331,MORTGAGE,29.7050939997314,-98.48094300002863
1838 BUFFALO ST,SAN ANTONIO,78211,Harlandale ISD,20260100333,MORTGAGE,29.371283999707877,-98.51960700014521
6626 BLEAK HILLS BLVD,SAN ANTONIO,78252,Southwest ISD,20260100337,MORTGAGE,29.36681999976623,-98.69827950023797
5146 GAWAIN DR,SAN ANTONIO,78218,Northeast ISD,20260100339,MORTGAGE,29.505743999900837,-98.38837350048577
730 SAN ANZA,SAN ANTONIO,78260,Comal ISD,20260100344,MORTGAGE,29.711852999952235,-98.50635899962377
7942 KENNEDY HILL DR,SAN ANTONIO,78235,San Antonio ISD,20260100346,MORTGAGE,29.345867999849514,-98.4535785004242
7924 KENNEDY HILL DR,SAN ANTONIO,78235,San Antonio ISD,20260100347,MORTGAGE,29.346183000038963,-98.453366999817
7922 KENNEDY HILL DR,SAN ANTONIO,78235,San Antonio ISD,20260100348,MORTGAGE,29.34624599968245,-98.45337150006942
7940 KENNEDY HILL 7,SAN ANTONIO,78235,San Antonio ISD,20260100349,MORTGAGE,29.34593999977747,-98.45357849957924
6695 LOW BID LN,SAN ANTONIO,78250,Northside ISD (Bexar),20260100350,MORTGAGE,29.495250000304047,-98.64095850021232
2326 HICKORY WAY,SAN ANTONIO,78264,Southside ISD,20260100351,MORTGAGE,29.177847000443766,-98.45562150014581
2329 S WW WHITE RD,SAN ANTONIO,78222,San Antonio ISD,20260100352,MORTGAGE,29.388455999920744,-98.40497850003618
12828 SAN PEDRO AVE,SAN ANTONIO,78216,Northeast ISD,20260100353,MORTGAGE,29.557457999810712,-98.48320200039441
4147 SUNRISE CREEK DRIVE,SAN ANTONIO,78244,Judson ISD,20260100354,MORTGAGE,29.46641399962535,-98.36559450029782
5408 SOUTH FLORES STREET,SAN ANTONIO,78214,Harlandale ISD,20260100355,MORTGAGE,29.371887000217917,-98.49706200004864
11415 FORT WYNE DR,SAN ANTONIO,78245,Southwest ISD,20260100358,MORTGAGE,29.396178000011187,-98.69819399969299
111 MOON,SAN ANTONIO,78204,San Antonio ISD,20260100359,MORTGAGE,29.390103000050296,-98.50008150016615
10707 CAT MTN,SAN ANTONIO,78251,Northside ISD (Bexar),20260100360,MORTGAGE,29.447882999812666,-98.7027480000281
2730 TORTUGA VERDE,SAN ANTONIO,78245,Medina Valley ISD,20260100361,MORTGAGE,29.40358500019884,-98.78063849964794
4959 FORTUNA PL,SAN ANTONIO,78237,Edgewood ISD (Bexar),20260100362,MORTGAGE,29.43854099992649,-98.58449699956056
305 HILL COUNTRY LN,SAN ANTONIO,78232,Northeast ISD,20260100363,MORTGAGE,29.59140599971752,-98.48242349957992
215 N CENTER ST,SAN ANTONIO,78202,San Antonio ISD,20260100364,MORTGAGE,29.4228179996258,-98.47891349975986
446 E HIGHLAND BLVD,SAN ANTONIO,78210,San Antonio ISD,20260100366,MORTGAGE,29.396061000420094,-98.4739725004069
4106 WILD FOX,ELMENDORF,78112,Southside ISD,20260100367,MORTGAGE,29.180925000370443,-98.41147200007802
6459 TAHOKA ST,SAN ANTONIO,78227,Northside ISD (Bexar),20260100369,MORTGAGE,29.409804000006677,-98.61735150031384
142 EDDIE WESSLEY ST,SAN ANTONIO,78207,San Antonio ISD,20260100370,MORTGAGE,29.432339999606462,-98.51197500031071
115 SUN,SAN ANTONIO,78204,San Antonio ISD,20260100371,MORTGAGE,29.389967999929567,-98.50106700001906
1743 W FRENCH PL,SAN ANTONIO,78201,San Antonio ISD,20260100372,MORTGAGE,29.451780000452715,-98.52367500036071
154 BANBRIDGE AVE,SAN ANTONIO,78223,San Antonio ISD,20260100373,MORTGAGE,29.366099999672418,-98.43128550004384
123 HOOVER AVE,SAN ANTONIO,78225,San Antonio ISD,20260100374,MORTGAGE,29.384837999977826,-98.52074550033778
102 HOOVER AVE,SAN ANTONIO,78225,San Antonio ISD,20260100375,MORTGAGE,29.3844780000525,-98.51994899963736
5918 CENTURY DR,SAN ANTONIO,78242,South San Antonio ISD,20260100376,MORTGAGE,29.373317999986064,-98.6116590002797
1131 SW 35TH STREET,SAN ANTONIO,78237,Edgewood ISD (Bexar),20260100377,MORTGAGE,29.407860000329304,-98.57275200009177
8431 CREEK BEND,SAN ANTONIO,78242,Southwest ISD,20260100378,MORTGAGE,29.342897999850738,-98.60121899990386
22819 MASON PASS,SAN ANTONIO,78264,Southside ISD,20260100379,MORTGAGE,29.18592899958493,-98.47046699985415
11103 COUNTRY CANYON,SAN ANTONIO,78252,Southwest ISD,20260100380,MORTGAGE,29.37675600017906,-98.71165799971585
15914 GINO PARK,SAN ANTONIO,78247,Northeast ISD,20260100381,MORTGAGE,29.585853000181423,-98.38159199972363
10006 TIGER BAY,SAN ANTONIO,78251,Northside ISD (Bexar),20260100382,MORTGAGE,29.44040399983177,-98.68943250015211
305 S SAN AUGUSTINE,SAN ANTONIO,78237,Edgewood ISD (Bexar),20260100383,MORTGAGE,29.427740999798257,-98.5555260003618
19720 S US HIGHWAY 281,SAN ANTONIO,78221,Southside ISD,20260100384,MORTGAGE,29.226708000342743,-98.47587150025443
1231 MCKINLEY AVE,SAN ANTONIO,78210,San Antonio ISD,20260100385,MORTGAGE,29.39228100007769,-98.46656099968114
1231 MCKINLEY AVE,SAN ANTONIO,78210,San Antonio ISD,20260100386,MORTGAGE,29.39228100007769,-98.46656099968114
819 N HAMILTON ST,SAN ANTONIO,78207,San Antonio ISD,20260100387,MORTGAGE,29.436597000261415,-98.5307130001148
22915 SAVANNAH HTS,VON ORMY,78073,Somerset ISD,20260100388,MORTGAGE,29.183111999812144,-98.60680800020415
1942 W MAGNOLIA AVE,SAN ANTONIO,78201,San Antonio ISD,20260100389,MORTGAGE,29.456298000184077,-98.52983999978375
10019 BLUELAKE RIDGE DR,CONVERSE,78109,Judson ISD,20260100390,MORTGAGE,29.533526999983657,-98.34477750003002
13115 WILLOWTHORN LN,SAN ANTONIO,78249,Northside ISD (Bexar),20260100391,MORTGAGE,29.568986999697593,-98.61730199972595
204 HONEYSUCKLE LN,SAN ANTONIO,78213,Northeast ISD,20260100392,MORTGAGE,29.51399699986849,-98.5154939995605
10148 SUNSET PL,SAN ANTONIO,78245,Northside ISD (Bexar),20260100393,MORTGAGE,29.406824999608357,-98.69190300050742
8522 QUAIL WOOD,SAN ANTONIO,78250,Northside ISD (Bexar),20260100394,MORTGAGE,29.503665000151607,-98.64342449996539
4210 GOLDEN SPICE DR,SAN ANTONIO,78222,East Central ISD,20260100395,MORTGAGE,29.367810000150165,-98.41431599949337
4172 JUNG RD,SAN ANTONIO,78247,Northeast ISD,20260100396,MORTGAGE,29.578670999852935,-98.41171500028263
94 LEWIS ST,SAN ANTONIO,78212,San Antonio ISD,20260100397,MORTGAGE,29.437758000394652,-98.49630600016465
602 GLADSTONE,SAN ANTONIO,78225,San Antonio ISD,20260100398,MORTGAGE,29.382146999603787,-98.51572800034762
10270 COMMERCE ST,ATASCOSA,78002,Southwest ISD,20260100399,MORTGAGE,29.326661999930543,-98.69437350028711
4235 NOGALES ST,SAN ANTONIO,78237,Edgewood ISD (Bexar),20260100400,MORTGAGE,29.42116200016022,-98.57221650007156
10804 LANDS RUN STREET,SAN ANTONIO,78230,Northside ISD (Bexar),20260100401,MORTGAGE,29.53915200039891,-98.56391849978408
1325 EDISON DR,SAN ANTONIO,78201,San Antonio ISD,20260100410,MORTGAGE,29.47541400006195,-98.51673599960074
347 CONCIO ST,SAN ANTONIO,78227,Northside ISD (Bexar),20260100411,MORTGAGE,29.408543999893894,-98.65926899963361
1037 RIVER PARK,SAN ANTONIO,78216,Northeast ISD,20260100413,MORTGAGE,29.575368000103964,-98.50868100007072
334 BANK ST,SAN ANTONIO,78204,San Antonio ISD,20260100414,MORTGAGE,29.39907600038729,-98.49722850005278
13640 FLOCK PLACE,SAN ANTONIO,78252,Medina Valley ISD,20260100415,MORTGAGE,29.358639000197886,-98.76656249949762
6810 GLENDORA AVE,SAN ANTONIO,78218,Northeast ISD,20260100416,MORTGAGE,29.491586999554425,-98.40271499962653
4330 SPECTRUM ONE,SAN ANTONIO,78230,Northside ISD (Bexar),20260100417,MORTGAGE,29.53788300007734,-98.5642335000461
530 S WW WHITE RD,SAN ANTONIO,78220,San Antonio ISD,20260100418,MORTGAGE,29.422899000202953,-98.40522150024172
162 COLLEEN DRIVE,SAN ANTONIO,78228,San Antonio ISD,20260100419,MORTGAGE,29.464829999993984,-98.55904049977758
2606 BIG JOHN DR,SAN ANTONIO,78224,South San Antonio ISD,20260100423,MORTGAGE,29.335346999679913,-98.54846549987957
8647 TANBARK DR,SAN ANTONIO,78240,Northside ISD (Bexar),20260100424,MORTGAGE,29.523429000366793,-98.63413649984882
8327 TIMBERWILDE ST,SAN ANTONIO,78250,Northside ISD (Bexar),20260100425,MORTGAGE,29.49461099971581,-98.64959850037044
925 FLANDERS AVE,SAN ANTONIO,78211,Harlandale ISD,20260100426,MORTGAGE,29.37479399974977,-98.51796450032039
130 E LACHAPELLE,SAN ANTONIO,78204,San Antonio ISD,20260100427,MORTGAGE,29.405358000327,-98.50139549995706
2426 TUCKER DRIVE,SAN ANTONIO,78222,San Antonio ISD,20260100431,MORTGAGE,29.397177000057955,-98.39473200041625
124 HARMON DR,SAN ANTONIO,78209,Alamo Heights ISD,20260100432,MORTGAGE,29.490687000403465,-98.45295749967514
127 HAYNES AVE,SAN ANTONIO,78210,San Antonio ISD,20260100433,MORTGAGE,29.398103999891052,-98.4852585003913
443 MERRY ANN DR,SAN ANTONIO,78223,San Antonio ISD,20260100434,MORTGAGE,29.38341599989777,-98.4617460000457
202 LANARK DR,SAN ANTONIO,78218,Northeast ISD,20260100435,MORTGAGE,29.503079999775675,-98.41452749987452
6531 TAHOKA ST,SAN ANTONIO,78227,Northside ISD (Bexar),20260100436,MORTGAGE,29.40977700045249,-98.6187690000481
414 REGINA ST,SAN ANTONIO,78223,San Antonio ISD,20260100437,MORTGAGE,29.380005000304855,-98.47041299996229
24210 MOUNTAIN BEND,SAN ANTONIO,78258,Northeast ISD,20260100441,MORTGAGE,29.666132999659574,-98.45157150028496
7014 QUANTUM LOOP,SAN ANTONIO,78252,Southwest ISD,20260100442,MORTGAGE,29.349405000305097,-98.63299800045371
7515 ROMAIRE RUN,SAN ANTONIO,78252,Southwest ISD,20260100443,MORTGAGE,29.358108000102554,-98.72626950040598
12935 CHIPPER CROSSING,SAN ANTONIO,78221,Southside ISD,20260100444,MORTGAGE,29.29248900028568,-98.47483199976938
9307 VALLEY BND,SAN ANTONIO,78250,Northside ISD (Bexar),20260100445,MORTGAGE,29.499263999804796,-98.68287149986334
8686 RIDGE MILE DR,SAN ANTONIO,78239,Judson ISD,20260100446,MORTGAGE,29.515175999642096,-98.33704649960434
1204 W KINGS HWY,SAN ANTONIO,78201,San Antonio ISD,20260100450,MORTGAGE,29.459483999973283,-98.51431500011579
102 RUELLE LN,SAN ANTONIO,78209,Alamo Heights ISD,20260100451,MORTGAGE,29.491083000447986,-98.45794350000824
1621 W WINNIPEG AVE,SAN ANTONIO,78225,San Antonio ISD,20260100452,MORTGAGE,29.386557000325947,-98.53413299999457
5206 ALAN BEAN,SAN ANTONIO,78219,Judson ISD,20260100453,MORTGAGE,29.45664900014214,-98.38788300036437
202 POPPY ST,SAN ANTONIO,78203,San Antonio ISD,20260100454,MORTGAGE,29.41200000043859,-98.45108100016732
8475 JOHNSON,SOMERSET,78069,Somerset ISD,20260100455,MORTGAGE,29.224025999900064,-98.66443499960275
5127 CERRO VISTA STREET,SAN ANTONIO,78233,Northeast ISD,20260100164,MORTGAGE,29.555027999718995,-98.38940850042225
102 LARIAT DR,SAN ANTONIO,78232,Northeast ISD,20260100160,MORTGAGE,29.600126999907072,-98.50797000023901
5018 CINDERELLA LANE,SAN ANTONIO,78219,Judson ISD,20260100165,MORTGAGE,29.46147300014355,-98.39338650005703
27715 RIATA RANCH DR,SAN ANTONIO,78261,Comal ISD,20260100271,MORTGAGE,29.70983628154271,-98.41452866753838
TED WILLIAMS RD,ATASCOSA,78002,Southwest ISD,20260100365,MORTGAGE,29.28796351928531,-98.78007843625429
MARTIN LUTHER KING,SAN ANTONIO,78203,San Antonio ISD,20260100368,MORTGAGE,29.41339131471128,-98.43421193741321
MARTIN LUTHER KING,SAN ANTONIO,78203,San Antonio ISD,20260100412,MORTGAGE,29.41335357890829,-98.43414139574232
3191 WOODFIN DR,SAN ANTONIO,78264,Southside ISD,20260100233,MORTGAGE,29.168700848623047,-98.43846352030718
840 H ST,SAN ANTONIO,78220,San Antonio ISD,20260100236,MORTGAGE,29.406648747030076,-98.43266655670749
SOUTHLAKE PASS,SAN ANTONIO,78235,San Antonio ISD,20260100345,MORTGAGE,29.34598740510201,-98.45306493292051
114 BRENNER ST,SAN ANTONIO,78237,Edgewood ISD (Bexar),2013TA104902,TAX,29.422376999665804,-98.55999899958917
206 ORPHAN,SAN ANTONIO,78202,San Antonio ISD,2016TA101507,TAX,29.428299000238482,-98.45372250009517
13194 LOOKOUT RD,SAN ANTONIO,78233,Northeast ISD,2017TA102680,TAX,29.559555000316166,-98.37423899977267
207 WINGATE AVE,SAN ANTONIO,78204,San Antonio ISD,2017TA102728,TAX,29.402774999637572,-98.51937300025942
659 FERRIS AVE,SAN ANTONIO,78220,San Antonio ISD,2018TA100450,TAX,29.414493000101455,-98.42205599957805
147 RALPH AVE,SAN ANTONIO,78204,San Antonio ISD,2021TA100421,TAX,29.405321999828036,-98.50991850014962
435 VINE ST,SAN ANTONIO,78210,San Antonio ISD,2021TA100977,TAX,29.408275069955774,-98.45101316298508
723 STERLING DR,SAN ANTONIO,78220,San Antonio ISD,2014TA101738,TAX,29.41296299970025,-98.42190749968255
3615 W HOUSTON ST,SAN ANTONIO,78207,San Antonio ISD,2013TA102482,TAX,29.43021600041859,-98.53781399989302
CHAVANEUUX RD,SAN ANTONIO,78214,Southside ISD,2021TA101094,TAX,29.320990979388743,-98.51720048421998
3059 WRIGHT CARPENTER,SAN ANTONIO,78221,Southside ISD,2020TA102137,TAX,29.2469004656984,-98.4422672269922
POTEET JOURDANTON,VON ORMY,78073,Somerset ISD,2010TA102310,TAX,29.204371851031055,-98.5848376287155
